ONEWEB-0035             
1 45143U 20008N   26048.04955226 -.00000514  00000+0 -15097-2 0  9995
2 45143  87.8747  60.2144 0001898  94.0893 266.0451 13.10371498292202
ONEWEB-0036             
1 45144U 20008P   26048.04074704 -.00013940  00000+0 -40318-1 0  9999
2 45144  87.8758  60.1808 0001669  79.6107 280.5208 13.09878897292635
ONEWEB-0038             
1 45145U 20008Q   26048.00146163 -.00000289  00000+0 -85000-3 0  9996
2 45145  87.8834  44.9707 0000875 154.1146 206.0026 13.11415993294572
ONEWEB-0039             
1 45146U 20008R   26048.02218299  .00000654  00000+0  18378-2 0  9996
2 45146  87.8761  60.2013 0001566  75.1561 284.9740 13.10371526292426
ONEWEB-0040             
1 45147U 20008S   26048.09190399  .00000659  00000+0  18509-2 0  9995
2 45147  87.8750  60.2062 0001765  92.5330 267.5999 13.10373078292132
ONEWEB-0043             
1 45149U 20008U   26048.09356152  .00000732  00000+0  20596-2 0  9999
2 45149  87.8758  60.1875 0001632  72.7762 287.3544 13.10373162292450
ONEWEB-0044             
1 45150U 20008V   26048.04539598 -.00000299  00000+0 -89364-3 0  9992
2 45150  87.8755  60.1924 0001706  87.8694 272.2628 13.10370164292744
ONEWEB-0045             
1 45151U 20008W   26047.99623137  .00000042  00000+0  81978-4 0  9997
2 45151  87.8838  44.9579 0001761  85.9529 274.1800 13.11417610294654
ONEWEB-0047             
1 45152U 20008X   26048.03876867  .00000020  00000+0  20617-4 0  9993
2 45152  87.8745  60.1981 0001822  89.2153 270.9183 13.10371441292462
ONEWEB-0048             
1 45153U 20008Y   26048.03379348  .00000283  00000+0  77373-3 0  9997
2 45153  87.8744  60.2268 0001854  91.8131 268.3209 13.10369860292070
ONEWEB-0049             
1 45154U 20008Z   26048.03697361  .00000102  00000+0  25502-3 0  9993
2 45154  87.8742  60.2145 0002166  79.7006 280.4365 13.10371173292298
ONEWEB-0051             
1 45155U 20008AA  26048.14713786  .00000096  00000+0  23490-3 0  9992
2 45155  87.8831  44.9422 0001811  87.6482 272.4853 13.11415278295356
ONEWEB-0052             
1 45156U 20008AB  26048.03131207  .00000364  00000+0  10059-2 0  9997
2 45156  87.8755  60.1827 0002172  77.4855 282.6515 13.10370722292205
ONEWEB-0053             
1 45157U 20008AC  26048.01388288  .00000690  00000+0  19409-2 0  9999
2 45157  87.8757  60.2266 0001817  73.7824 286.3504 13.10373435292175
ONEWEB-0054             
1 45158U 20008AD  26048.04871909 -.00000536  00000+0 -15731-2 0  9995
2 45158  87.8753  60.1939 0001952  90.5246 269.6105 13.10370332292290
ONEWEB-0056             
1 45159U 20008AE  26048.02965114  .00000475  00000+0  13231-2 0  9999
2 45159  87.8755  60.1975 0002066  87.6575 272.4788 13.10371072292440
ONEWEB-0057             
1 45160U 20008AF  26048.03724909  .00000027  00000+0  40520-4 0  9993
2 45160  87.8748  60.2067 0001872  81.7748 278.3592 13.10369415292613
