[{"OBJECT_NAME":"ONEWEB-0035","OBJECT_ID":"2020-008N","EPOCH":"2026-02-17T01:11:21.315264","MEAN_MOTION":13.10371498,"ECCENTRICITY":0.0001898,"INCLINATION":87.8747,"RA_OF_ASC_NODE":60.2144,"ARG_OF_PERICENTER":94.0893,"MEAN_ANOMALY":266.0451,"EPHEMERIS_TYPE":0,"CLASSIFICATION_TYPE":"U","NORAD_CAT_ID":45143,"ELEMENT_SET_NO":999,"REV_AT_EPOCH":29220,"BSTAR":-0.0015097,"MEAN_MOTION_DOT":-5.14e-6,"MEAN_MOTION_DDOT":0},{"OBJECT_NAME":"ONEWEB-0036","OBJECT_ID":"2020-008P","EPOCH":"2026-02-17T00:58:40.544256","MEAN_MOTION":13.09878897,"ECCENTRICITY":0.0001669,"INCLINATION":87.8758,"RA_OF_ASC_NODE":60.1808,"ARG_OF_PERICENTER":79.6107,"MEAN_ANOMALY":280.5208,"EPHEMERIS_TYPE":0,"CLASSIFICATION_TYPE":"U","NORAD_CAT_ID":45144,"ELEMENT_SET_NO":999,"REV_AT_EPOCH":29263,"BSTAR":-0.040318,"MEAN_MOTION_DOT":-0.0001394,"MEAN_MOTION_DDOT":0},{"OBJECT_NAME":"ONEWEB-0038","OBJECT_ID":"2020-008Q","EPOCH":"2026-02-17T00:02:06.284832","MEAN_MOTION":13.11415993,"ECCENTRICITY":8.75e-5,"INCLINATION":87.8834,"RA_OF_ASC_NODE":44.9707,"ARG_OF_PERICENTER":154.1146,"MEAN_ANOMALY":206.0026,"EPHEMERIS_TYPE":0,"CLASSIFICATION_TYPE":"U","NORAD_CAT_ID":45145,"ELEMENT_SET_NO":999,"REV_AT_EPOCH":29457,"BSTAR":-0.00085,"MEAN_MOTION_DOT":-2.89e-6,"MEAN_MOTION_DDOT":0},{"OBJECT_NAME":"ONEWEB-0039","OBJECT_ID":"2020-008R","EPOCH":"2026-02-17T00:31:56.610336","MEAN_MOTION":13.10371526,"ECCENTRICITY":0.0001566,"INCLINATION":87.8761,"RA_OF_ASC_NODE":60.2013,"ARG_OF_PERICENTER":75.1561,"MEAN_ANOMALY":284.974,"EPHEMERIS_TYPE":0,"CLASSIFICATION_TYPE":"U","NORAD_CAT_ID":45146,"ELEMENT_SET_NO":999,"REV_AT_EPOCH":29242,"BSTAR":0.0018378,"MEAN_MOTION_DOT":6.54e-6,"MEAN_MOTION_DDOT":0},{"OBJECT_NAME":"ONEWEB-0040","OBJECT_ID":"2020-008S","EPOCH":"2026-02-17T02:12:20.504736","MEAN_MOTION":13.10373078,"ECCENTRICITY":0.0001765,"INCLINATION":87.875,"RA_OF_ASC_NODE":60.2062,"ARG_OF_PERICENTER":92.533,"MEAN_ANOMALY":267.5999,"EPHEMERIS_TYPE":0,"CLASSIFICATION_TYPE":"U","NORAD_CAT_ID":45147,"ELEMENT_SET_NO":999,"REV_AT_EPOCH":29213,"BSTAR":0.0018509,"MEAN_MOTION_DOT":6.59e-6,"MEAN_MOTION_DDOT":0},{"OBJECT_NAME":"ONEWEB-0043","OBJECT_ID":"2020-008U","EPOCH":"2026-02-17T02:14:43.715328","MEAN_MOTION":13.10373162,"ECCENTRICITY":0.0001632,"INCLINATION":87.8758,"RA_OF_ASC_NODE":60.1875,"ARG_OF_PERICENTER":72.7762,"MEAN_ANOMALY":287.3544,"EPHEMERIS_TYPE":0,"CLASSIFICATION_TYPE":"U","NORAD_CAT_ID":45149,"ELEMENT_SET_NO":999,"REV_AT_EPOCH":29245,"BSTAR":0.0020596,"MEAN_MOTION_DOT":7.32e-6,"MEAN_MOTION_DDOT":0},{"OBJECT_NAME":"ONEWEB-0044","OBJECT_ID":"2020-008V","EPOCH":"2026-02-17T01:05:22.212672","MEAN_MOTION":13.10370164,"ECCENTRICITY":0.0001706,"INCLINATION":87.8755,"RA_OF_ASC_NODE":60.1924,"ARG_OF_PERICENTER":87.8694,"MEAN_ANOMALY":272.2628,"EPHEMERIS_TYPE":0,"CLASSIFICATION_TYPE":"U","NORAD_CAT_ID":45150,"ELEMENT_SET_NO":999,"REV_AT_EPOCH":29274,"BSTAR":-0.00089364,"MEAN_MOTION_DOT":-2.99e-6,"MEAN_MOTION_DDOT":0},{"OBJECT_NAME":"ONEWEB-0045","OBJECT_ID":"2020-008W","EPOCH":"2026-02-16T23:54:34.390368","MEAN_MOTION":13.1141761,"ECCENTRICITY":0.0001761,"INCLINATION":87.8838,"RA_OF_ASC_NODE":44.9579,"ARG_OF_PERICENTER":85.9529,"MEAN_ANOMALY":274.18,"EPHEMERIS_TYPE":0,"CLASSIFICATION_TYPE":"U","NORAD_CAT_ID":45151,"ELEMENT_SET_NO":999,"REV_AT_EPOCH":29465,"BSTAR":8.1978e-5,"MEAN_MOTION_DOT":4.2e-7,"MEAN_MOTION_DDOT":0},{"OBJECT_NAME":"ONEWEB-0047","OBJECT_ID":"2020-008X","EPOCH":"2026-02-17T00:55:49.613088","MEAN_MOTION":13.10371441,"ECCENTRICITY":0.0001822,"INCLINATION":87.8745,"RA_OF_ASC_NODE":60.1981,"ARG_OF_PERICENTER":89.2153,"MEAN_ANOMALY":270.9183,"EPHEMERIS_TYPE":0,"CLASSIFICATION_TYPE":"U","NORAD_CAT_ID":45152,"ELEMENT_SET_NO":999,"REV_AT_EPOCH":29246,"BSTAR":2.0617e-5,"MEAN_MOTION_DOT":2.0e-7,"MEAN_MOTION_DDOT":0},{"OBJECT_NAME":"ONEWEB-0048","OBJECT_ID":"2020-008Y","EPOCH":"2026-02-17T00:48:39.756672","MEAN_MOTION":13.1036986,"ECCENTRICITY":0.0001854,"INCLINATION":87.8744,"RA_OF_ASC_NODE":60.2268,"ARG_OF_PERICENTER":91.8131,"MEAN_ANOMALY":268.3209,"EPHEMERIS_TYPE":0,"CLASSIFICATION_TYPE":"U","NORAD_CAT_ID":45153,"ELEMENT_SET_NO":999,"REV_AT_EPOCH":29207,"BSTAR":0.00077373,"MEAN_MOTION_DOT":2.83e-6,"MEAN_MOTION_DDOT":0},{"OBJECT_NAME":"ONEWEB-0049","OBJECT_ID":"2020-008Z","EPOCH":"2026-02-17T00:53:14.519904","MEAN_MOTION":13.10371173,"ECCENTRICITY":0.0002166,"INCLINATION":87.8742,"RA_OF_ASC_NODE":60.2145,"ARG_OF_PERICENTER":79.7006,"MEAN_ANOMALY":280.4365,"EPHEMERIS_TYPE":0,"CLASSIFICATION_TYPE":"U","NORAD_CAT_ID":45154,"ELEMENT_SET_NO":999,"REV_AT_EPOCH":29229,"BSTAR":0.00025502,"MEAN_MOTION_DOT":1.02e-6,"MEAN_MOTION_DDOT":0},{"OBJECT_NAME":"ONEWEB-0051","OBJECT_ID":"2020-008AA","EPOCH":"2026-02-17T03:31:52.711104","MEAN_MOTION":13.11415278,"ECCENTRICITY":0.0001811,"INCLINATION":87.8831,"RA_OF_ASC_NODE":44.9422,"ARG_OF_PERICENTER":87.6482,"MEAN_ANOMALY":272.4853,"EPHEMERIS_TYPE":0,"CLASSIFICATION_TYPE":"U","NORAD_CAT_ID":45155,"ELEMENT_SET_NO":999,"REV_AT_EPOCH":29535,"BSTAR":0.0002349,"MEAN_MOTION_DOT":9.6e-7,"MEAN_MOTION_DDOT":0},{"OBJECT_NAME":"ONEWEB-0052","OBJECT_ID":"2020-008AB","EPOCH":"2026-02-17T00:45:05.362848","MEAN_MOTION":13.10370722,"ECCENTRICITY":0.0002172,"INCLINATION":87.8755,"RA_OF_ASC_NODE":60.1827,"ARG_OF_PERICENTER":77.4855,"MEAN_ANOMALY":282.6515,"EPHEMERIS_TYPE":0,"CLASSIFICATION_TYPE":"U","NORAD_CAT_ID":45156,"ELEMENT_SET_NO":999,"REV_AT_EPOCH":29220,"BSTAR":0.0010059,"MEAN_MOTION_DOT":3.64e-6,"MEAN_MOTION_DDOT":0},{"OBJECT_NAME":"ONEWEB-0053","OBJECT_ID":"2020-008AC","EPOCH":"2026-02-17T00:19:59.480832","MEAN_MOTION":13.10373435,"ECCENTRICITY":0.0001817,"INCLINATION":87.8757,"RA_OF_ASC_NODE":60.2266,"ARG_OF_PERICENTER":73.7824,"MEAN_ANOMALY":286.3504,"EPHEMERIS_TYPE":0,"CLASSIFICATION_TYPE":"U","NORAD_CAT_ID":45157,"ELEMENT_SET_NO":999,"REV_AT_EPOCH":29217,"BSTAR":0.0019409,"MEAN_MOTION_DOT":6.9e-6,"MEAN_MOTION_DDOT":0},{"OBJECT_NAME":"ONEWEB-0054","OBJECT_ID":"2020-008AD","EPOCH":"2026-02-17T01:10:09.329376","MEAN_MOTION":13.10370332,"ECCENTRICITY":0.0001952,"INCLINATION":87.8753,"RA_OF_ASC_NODE":60.1939,"ARG_OF_PERICENTER":90.5246,"MEAN_ANOMALY":269.6105,"EPHEMERIS_TYPE":0,"CLASSIFICATION_TYPE":"U","NORAD_CAT_ID":45158,"ELEMENT_SET_NO":999,"REV_AT_EPOCH":29229,"BSTAR":-0.0015731,"MEAN_MOTION_DOT":-5.36e-6,"MEAN_MOTION_DDOT":0},{"OBJECT_NAME":"ONEWEB-0056","OBJECT_ID":"2020-008AE","EPOCH":"2026-02-17T00:42:41.858496","MEAN_MOTION":13.10371072,"ECCENTRICITY":0.0002066,"INCLINATION":87.8755,"RA_OF_ASC_NODE":60.1975,"ARG_OF_PERICENTER":87.6575,"MEAN_ANOMALY":272.4788,"EPHEMERIS_TYPE":0,"CLASSIFICATION_TYPE":"U","NORAD_CAT_ID":45159,"ELEMENT_SET_NO":999,"REV_AT_EPOCH":29244,"BSTAR":0.0013231,"MEAN_MOTION_DOT":4.75e-6,"MEAN_MOTION_DDOT":0},{"OBJECT_NAME":"ONEWEB-0057","OBJECT_ID":"2020-008AF","EPOCH":"2026-02-17T00:53:38.321376","MEAN_MOTION":13.10369415,"ECCENTRICITY":0.0001872,"INCLINATION":87.8748,"RA_OF_ASC_NODE":60.2067,"ARG_OF_PERICENTER":81.7748,"MEAN_ANOMALY":278.3592,"EPHEMERIS_TYPE":0,"CLASSIFICATION_TYPE":"U","NORAD_CAT_ID":45160,"ELEMENT_SET_NO":999,"REV_AT_EPOCH":29261,"BSTAR":4.052e-5,"MEAN_MOTION_DOT":2.7e-7,"MEAN_MOTION_DDOT":0}]
